LEMUR-1                 
1 40044U 14033AL  26064.86472839  .00002696  00000+0  31721-3 0  9997
2 40044  97.7710 217.0843 0049726  58.1584 302.4457 14.84775414630132
LEMUR-2-GREENBERG       
1 42837U 17042N   26065.05643274  .00019624  00000+0  72333-3 0  9990
2 42837  97.3768 246.4298 0009314  16.1457 344.0077 15.27806959472620
LEMUR-2-ANDIS           
1 42838U 17042P   26065.02877253  .00024229  00000+0  82515-3 0  9994
2 42838  97.3646 246.2910 0009310  16.6150 343.5394 15.30352882472650
LEMUR-2-MONSON          
1 42839U 17042Q   26065.31223315  .00019177  00000+0  77309-3 0  9992
2 42839  97.4026 246.7894 0006759   4.4987 355.6311 15.24851424472479
LEMUR-2-FURIAUS         
1 42840U 17042R   26065.28973414  .00027689  00000+0  10745-2 0  9999
2 42840  97.3743 244.8759 0007633  69.0312 291.1743 15.26044518472491
LEMUR-2-PETERG          
1 42841U 17042S   26065.08040061  .00019942  00000+0  70035-3 0  9993
2 42841  97.3970 250.2746 0003813 354.5915   5.5283 15.29425664472650
LEMUR-2-DEMBITZ         
1 42842U 17042T   26065.06705284  .00018468  00000+0  70293-3 0  9995
2 42842  97.3798 247.5551 0007110  28.8935 331.2696 15.26773769472598
LEMUR-2-ZACHARY         
1 42845U 17042W   26065.08287316  .00045974  00000+0  10863-2 0  9999
2 42845  97.3649 255.1428 0003724  30.2202 329.9259 15.41696220473273
LEMUR-2-JIN-LUEN        
1 43182U 18014C   26064.73185728  .00234399  00000+0  14100-2 0  9998
2 43182  97.5453 354.6445 0002249 128.0074 232.1395 15.77056809444840
LEMUR-2-KADI            
1 43184U 18014E   26065.21340646  .00101654  00000+0  10958-2 0  9990
2 43184  97.4716 349.6846 0000748  78.4761 281.6581 15.63348685444842
LEMUR-2-AMANDA-SVANTE   
1 48269U 21034B   26065.17537971  .00029051  00000+0  10568-2 0  9996
2 48269  97.5832 141.1964 0002372 216.4772 143.6306 15.28198894265296
LEMUR-2-SPECIAL-K       
1 48273U 21034F   26065.21912231  .00073279  00000+0  15558-2 0  9997
2 48273  97.5721 146.3818 0001524 218.2117 141.9023 15.44768820265707
LEMUR-2-EMBRIONOVIS     
1 56970U 23084AQ  26065.28042173  .00010082  00000+0  30309-3 0  9998
2 56970  97.6126 205.8515 0008513 326.1830  33.8869 15.34574462151887
LEMUR-2-MANO            
1 57390U 23100E   26064.98096266  .00133427  00000+0  16522-2 0  9991
2 57390  99.4554  86.2853 0001648  62.9717 297.1701 15.59614178145908
LEMUR-2-DEVERILL-M-T    
1 57391U 23100F   26065.25987449  .00030531  00000+0  91281-3 0  9993
2 57391  99.4575  74.7363 0008409  38.6260 321.5576 15.34507627145438
LEMUR-2-BASS            
1 58259U 23174D   26065.18546877  .00020204  00000+0  51386-3 0  9994
2 58259  97.3887 148.7168 0008029 174.4383 185.6954 15.39606044129498
