[{"OBJECT_NAME":"LEMUR-1","OBJECT_ID":"2014-033AL","EPOCH":"2026-03-05T20:45:12.532896","MEAN_MOTION":14.84775414,"ECCENTRICITY":0.00497262,"INCLINATION":97.771,"RA_OF_ASC_NODE":217.0843,"ARG_OF_PERICENTER":58.1584,"MEAN_ANOMALY":302.4457,"EPHEMERIS_TYPE":0,"CLASSIFICATION_TYPE":"U","NORAD_CAT_ID":40044,"ELEMENT_SET_NO":999,"REV_AT_EPOCH":63013,"BSTAR":0.00031721135,"MEAN_MOTION_DOT":2.696e-5,"MEAN_MOTION_DDOT":0},{"OBJECT_NAME":"LEMUR-2-GREENBERG","OBJECT_ID":"2017-042N","EPOCH":"2026-03-06T01:21:15.788736","MEAN_MOTION":15.27806959,"ECCENTRICITY":0.0009314,"INCLINATION":97.3768,"RA_OF_ASC_NODE":246.4298,"ARG_OF_PERICENTER":16.1457,"MEAN_ANOMALY":344.0077,"EPHEMERIS_TYPE":0,"CLASSIFICATION_TYPE":"U","NORAD_CAT_ID":42837,"ELEMENT_SET_NO":999,"REV_AT_EPOCH":47262,"BSTAR":0.00072333062,"MEAN_MOTION_DOT":0.00019624,"MEAN_MOTION_DDOT":0},{"OBJECT_NAME":"LEMUR-2-ANDIS","OBJECT_ID":"2017-042P","EPOCH":"2026-03-06T00:41:25.946592","MEAN_MOTION":15.30352882,"ECCENTRICITY":0.00093101,"INCLINATION":97.3646,"RA_OF_ASC_NODE":246.291,"ARG_OF_PERICENTER":16.615,"MEAN_ANOMALY":343.5394,"EPHEMERIS_TYPE":0,"CLASSIFICATION_TYPE":"U","NORAD_CAT_ID":42838,"ELEMENT_SET_NO":999,"REV_AT_EPOCH":47265,"BSTAR":0.0008251491,"MEAN_MOTION_DOT":0.00024229,"MEAN_MOTION_DDOT":0},{"OBJECT_NAME":"LEMUR-2-MONSON","OBJECT_ID":"2017-042Q","EPOCH":"2026-03-06T07:29:36.944160","MEAN_MOTION":15.24851424,"ECCENTRICITY":0.00067598,"INCLINATION":97.4026,"RA_OF_ASC_NODE":246.7894,"ARG_OF_PERICENTER":4.4987,"MEAN_ANOMALY":355.6311,"EPHEMERIS_TYPE":0,"CLASSIFICATION_TYPE":"U","NORAD_CAT_ID":42839,"ELEMENT_SET_NO":999,"REV_AT_EPOCH":47247,"BSTAR":0.00077308809,"MEAN_MOTION_DOT":0.00019177,"MEAN_MOTION_DDOT":0},{"OBJECT_NAME":"LEMUR-2-FURIAUS","OBJECT_ID":"2017-042R","EPOCH":"2026-03-06T06:57:13.029696","MEAN_MOTION":15.26044518,"ECCENTRICITY":0.00076334,"INCLINATION":97.3743,"RA_OF_ASC_NODE":244.8759,"ARG_OF_PERICENTER":69.0312,"MEAN_ANOMALY":291.1743,"EPHEMERIS_TYPE":0,"CLASSIFICATION_TYPE":"U","NORAD_CAT_ID":42840,"ELEMENT_SET_NO":999,"REV_AT_EPOCH":47249,"BSTAR":0.0010744505,"MEAN_MOTION_DOT":0.00027689,"MEAN_MOTION_DDOT":0},{"OBJECT_NAME":"LEMUR-2-PETERG","OBJECT_ID":"2017-042S","EPOCH":"2026-03-06T01:55:46.612704","MEAN_MOTION":15.29425664,"ECCENTRICITY":0.0003813,"INCLINATION":97.397,"RA_OF_ASC_NODE":250.2746,"ARG_OF_PERICENTER":354.5915,"MEAN_ANOMALY":5.5283,"EPHEMERIS_TYPE":0,"CLASSIFICATION_TYPE":"U","NORAD_CAT_ID":42841,"ELEMENT_SET_NO":999,"REV_AT_EPOCH":47265,"BSTAR":0.00070034938,"MEAN_MOTION_DOT":0.00019942,"MEAN_MOTION_DDOT":0},{"OBJECT_NAME":"LEMUR-2-DEMBITZ","OBJECT_ID":"2017-042T","EPOCH":"2026-03-06T01:36:33.365376","MEAN_MOTION":15.26773769,"ECCENTRICITY":0.00071105,"INCLINATION":97.3798,"RA_OF_ASC_NODE":247.5551,"ARG_OF_PERICENTER":28.8935,"MEAN_ANOMALY":331.2696,"EPHEMERIS_TYPE":0,"CLASSIFICATION_TYPE":"U","NORAD_CAT_ID":42842,"ELEMENT_SET_NO":999,"REV_AT_EPOCH":47259,"BSTAR":0.00070293373,"MEAN_MOTION_DOT":0.00018468,"MEAN_MOTION_DDOT":0},{"OBJECT_NAME":"LEMUR-2-ZACHARY","OBJECT_ID":"2017-042W","EPOCH":"2026-03-06T01:59:20.241024","MEAN_MOTION":15.4169622,"ECCENTRICITY":0.0003724,"INCLINATION":97.3649,"RA_OF_ASC_NODE":255.1428,"ARG_OF_PERICENTER":30.2202,"MEAN_ANOMALY":329.9259,"EPHEMERIS_TYPE":0,"CLASSIFICATION_TYPE":"U","NORAD_CAT_ID":42845,"ELEMENT_SET_NO":999,"REV_AT_EPOCH":47327,"BSTAR":0.0010863056,"MEAN_MOTION_DOT":0.00045974,"MEAN_MOTION_DDOT":0},{"OBJECT_NAME":"LEMUR-2-JIN-LUEN","OBJECT_ID":"2018-014C","EPOCH":"2026-03-05T17:33:52.468992","MEAN_MOTION":15.77056809,"ECCENTRICITY":0.0002249,"INCLINATION":97.5453,"RA_OF_ASC_NODE":354.6445,"ARG_OF_PERICENTER":128.0074,"MEAN_ANOMALY":232.1395,"EPHEMERIS_TYPE":0,"CLASSIFICATION_TYPE":"U","NORAD_CAT_ID":43182,"ELEMENT_SET_NO":999,"REV_AT_EPOCH":44484,"BSTAR":0.0014100266,"MEAN_MOTION_DOT":0.00234399,"MEAN_MOTION_DDOT":0},{"OBJECT_NAME":"LEMUR-2-KADI","OBJECT_ID":"2018-014E","EPOCH":"2026-03-06T05:07:18.318144","MEAN_MOTION":15.63348685,"ECCENTRICITY":7.486e-5,"INCLINATION":97.4716,"RA_OF_ASC_NODE":349.6846,"ARG_OF_PERICENTER":78.4761,"MEAN_ANOMALY":281.6581,"EPHEMERIS_TYPE":0,"CLASSIFICATION_TYPE":"U","NORAD_CAT_ID":43184,"ELEMENT_SET_NO":999,"REV_AT_EPOCH":44484,"BSTAR":0.0010958296,"MEAN_MOTION_DOT":0.00101654,"MEAN_MOTION_DDOT":0},{"OBJECT_NAME":"LEMUR-2-AMANDA-SVANTE","OBJECT_ID":"2021-034B","EPOCH":"2026-03-06T04:12:32.806944","MEAN_MOTION":15.28198894,"ECCENTRICITY":0.00023729,"INCLINATION":97.5832,"RA_OF_ASC_NODE":141.1964,"ARG_OF_PERICENTER":216.4772,"MEAN_ANOMALY":143.6306,"EPHEMERIS_TYPE":0,"CLASSIFICATION_TYPE":"U","NORAD_CAT_ID":48269,"ELEMENT_SET_NO":999,"REV_AT_EPOCH":26529,"BSTAR":0.0010568402,"MEAN_MOTION_DOT":0.00029051,"MEAN_MOTION_DDOT":0},{"OBJECT_NAME":"LEMUR-2-SPECIAL-K","OBJECT_ID":"2021-034F","EPOCH":"2026-03-06T05:15:32.167584","MEAN_MOTION":15.4476882,"ECCENTRICITY":0.00015247,"INCLINATION":97.5721,"RA_OF_ASC_NODE":146.3818,"ARG_OF_PERICENTER":218.2117,"MEAN_ANOMALY":141.9023,"EPHEMERIS_TYPE":0,"CLASSIFICATION_TYPE":"U","NORAD_CAT_ID":48273,"ELEMENT_SET_NO":999,"REV_AT_EPOCH":26570,"BSTAR":0.0015558458,"MEAN_MOTION_DOT":0.00073279,"MEAN_MOTION_DDOT":0},{"OBJECT_NAME":"LEMUR-2-EMBRIONOVIS","OBJECT_ID":"2023-084AQ","EPOCH":"2026-03-06T06:43:48.437472","MEAN_MOTION":15.34574462,"ECCENTRICITY":0.00085133,"INCLINATION":97.6126,"RA_OF_ASC_NODE":205.8515,"ARG_OF_PERICENTER":326.183,"MEAN_ANOMALY":33.8869,"EPHEMERIS_TYPE":0,"CLASSIFICATION_TYPE":"U","NORAD_CAT_ID":56970,"ELEMENT_SET_NO":999,"REV_AT_EPOCH":15188,"BSTAR":0.00030308551,"MEAN_MOTION_DOT":0.00010082,"MEAN_MOTION_DDOT":0},{"OBJECT_NAME":"LEMUR-2-MANO","OBJECT_ID":"2023-100E","EPOCH":"2026-03-05T23:32:35.173824","MEAN_MOTION":15.59614178,"ECCENTRICITY":0.00016481,"INCLINATION":99.4554,"RA_OF_ASC_NODE":86.2853,"ARG_OF_PERICENTER":62.9717,"MEAN_ANOMALY":297.1701,"EPHEMERIS_TYPE":0,"CLASSIFICATION_TYPE":"U","NORAD_CAT_ID":57390,"ELEMENT_SET_NO":999,"REV_AT_EPOCH":14590,"BSTAR":0.0016522051,"MEAN_MOTION_DOT":0.00133427,"MEAN_MOTION_DDOT":0},{"OBJECT_NAME":"LEMUR-2-DEVERILL-M-T","OBJECT_ID":"2023-100F","EPOCH":"2026-03-06T06:14:13.155936","MEAN_MOTION":15.34507627,"ECCENTRICITY":0.00084098,"INCLINATION":99.4575,"RA_OF_ASC_NODE":74.7363,"ARG_OF_PERICENTER":38.626,"MEAN_ANOMALY":321.5576,"EPHEMERIS_TYPE":0,"CLASSIFICATION_TYPE":"U","NORAD_CAT_ID":57391,"ELEMENT_SET_NO":999,"REV_AT_EPOCH":14543,"BSTAR":0.00091281152,"MEAN_MOTION_DOT":0.00030531,"MEAN_MOTION_DDOT":0},{"OBJECT_NAME":"LEMUR-2-BASS","OBJECT_ID":"2023-174D","EPOCH":"2026-03-06T04:27:04.501728","MEAN_MOTION":15.39606044,"ECCENTRICITY":0.00080295,"INCLINATION":97.3887,"RA_OF_ASC_NODE":148.7168,"ARG_OF_PERICENTER":174.4383,"MEAN_ANOMALY":185.6954,"EPHEMERIS_TYPE":0,"CLASSIFICATION_TYPE":"U","NORAD_CAT_ID":58259,"ELEMENT_SET_NO":999,"REV_AT_EPOCH":12949,"BSTAR":0.00051386236,"MEAN_MOTION_DOT":0.00020204,"MEAN_MOTION_DDOT":0}]
